SKY MEXICO-1            
1 40664U 15026B   25334.77510659 -.00000213  00000+0  00000+0 0  9996
2 40664   0.0180 316.5650 0002545 305.1290   8.4945  1.00271504 38464
INTELSAT 34 (IS-34)     
1 40874U 15039A   25334.77983227 -.00000264  00000+0  00000+0 0  9994
2 40874   0.0140 295.4391 0000757 225.4528 134.2569  1.00271526 37633
INTELSAT 31 (IS-31)     
1 41581U 16035A   25334.55797163 -.00000130  00000+0  00000+0 0  9997
2 41581   0.0187 266.0499 0001994 319.8281 309.6399  1.00278841 34690
INTELSAT 36 (IS-36)     
1 41747U 16053A   25334.80444575 -.00000004  00000+0  00000+0 0  9995
2 41747   0.0110 341.0810 0001414 333.1566 113.8140  1.00276384 33950
INTELSAT 32E (IS-32E)   
1 41945U 17007B   25334.78225896 -.00000247  00000+0  00000+0 0  9994
2 41945   0.0183  48.6540 0000285 111.6952 148.0148  1.00271600 32237
INTELSAT 35E (IS-35E)   
1 42818U 17041A   25334.78399229 -.00000216  00000+0  00000+0 0  9990
2 42818   0.0181 346.7462 0002401 265.4248  65.5054  1.00271761 30828
INTELSAT 37E (IS-37E)   
1 42950U 17059A   25334.78728566 -.00000118  00000+0  00000+0 0  9997
2 42950   0.0165 284.0990 0003163 318.1795  93.0740  1.00273184 30072
AZERSPACE 2 (IS-38)     
1 43632U 18074A   25334.78948497  .00000158  00000+0  00000+0 0  9993
2 43632   0.0183 308.0301 0001506 295.3597 155.8588  1.00270580 26459
