{
  "type": "FeatureCollection",
  "features": [
    {
      "type": "Feature",
      "properties": {
        "norad_id": 40664,
        "name": "SKY MEXICO-1",
        "group": "intelsat",
        "lat": NaN,
        "lon": NaN,
        "alt_km": NaN,
        "timestamp": "2025-12-01T03:08:33.649645+00:00",
        "meta": {
          "OBJECT_NAME": "SKY MEXICO-1",
          "OBJECT_ID": "2015-026B",
          "EPOCH": "2025-11-30T18:36:09.209376",
          "MEAN_MOTION": 1.00271504,
          "ECCENTRICITY": 0.0002545,
          "INCLINATION": 0.018,
          "RA_OF_ASC_NODE": 316.565,
          "ARG_OF_PERICENTER": 305.129,
          "MEAN_ANOMALY": 8.4945,
          "EPHEMERIS_TYPE": 0,
          "CLASSIFICATION_TYPE": "U",
          "NORAD_CAT_ID": 40664,
          "ELEMENT_SET_NO": 999,
          "REV_AT_EPOCH": 3846,
          "BSTAR": 0,
          "MEAN_MOTION_DOT": -2.13e-06,
          "MEAN_MOTION_DDOT": 0
        }
      },
      "geometry": {
        "type": "Point",
        "coordinates": [
          NaN,
          NaN
        ]
      }
    },
    {
      "type": "Feature",
      "properties": {
        "norad_id": 40874,
        "name": "INTELSAT 34 (IS-34)",
        "group": "intelsat",
        "lat": NaN,
        "lon": NaN,
        "alt_km": NaN,
        "timestamp": "2025-12-01T03:08:33.650087+00:00",
        "meta": {
          "OBJECT_NAME": "INTELSAT 34 (IS-34)",
          "OBJECT_ID": "2015-039A",
          "EPOCH": "2025-11-30T18:42:57.508128",
          "MEAN_MOTION": 1.00271526,
          "ECCENTRICITY": 7.57e-05,
          "INCLINATION": 0.014,
          "RA_OF_ASC_NODE": 295.4391,
          "ARG_OF_PERICENTER": 225.4528,
          "MEAN_ANOMALY": 134.2569,
          "EPHEMERIS_TYPE": 0,
          "CLASSIFICATION_TYPE": "U",
          "NORAD_CAT_ID": 40874,
          "ELEMENT_SET_NO": 999,
          "REV_AT_EPOCH": 3763,
          "BSTAR": 0,
          "MEAN_MOTION_DOT": -2.64e-06,
          "MEAN_MOTION_DDOT": 0
        }
      },
      "geometry": {
        "type": "Point",
        "coordinates": [
          NaN,
          NaN
        ]
      }
    },
    {
      "type": "Feature",
      "properties": {
        "norad_id": 41581,
        "name": "INTELSAT 31 (IS-31)",
        "group": "intelsat",
        "lat": NaN,
        "lon": NaN,
        "alt_km": NaN,
        "timestamp": "2025-12-01T03:08:33.650548+00:00",
        "meta": {
          "OBJECT_NAME": "INTELSAT 31 (IS-31)",
          "OBJECT_ID": "2016-035A",
          "EPOCH": "2025-11-30T13:23:28.748832",
          "MEAN_MOTION": 1.00278841,
          "ECCENTRICITY": 0.0001994,
          "INCLINATION": 0.0187,
          "RA_OF_ASC_NODE": 266.0499,
          "ARG_OF_PERICENTER": 319.8281,
          "MEAN_ANOMALY": 309.6399,
          "EPHEMERIS_TYPE": 0,
          "CLASSIFICATION_TYPE": "U",
          "NORAD_CAT_ID": 41581,
          "ELEMENT_SET_NO": 999,
          "REV_AT_EPOCH": 3469,
          "BSTAR": 0,
          "MEAN_MOTION_DOT": -1.3e-06,
          "MEAN_MOTION_DDOT": 0
        }
      },
      "geometry": {
        "type": "Point",
        "coordinates": [
          NaN,
          NaN
        ]
      }
    },
    {
      "type": "Feature",
      "properties": {
        "norad_id": 41747,
        "name": "INTELSAT 36 (IS-36)",
        "group": "intelsat",
        "lat": NaN,
        "lon": NaN,
        "alt_km": NaN,
        "timestamp": "2025-12-01T03:08:33.650983+00:00",
        "meta": {
          "OBJECT_NAME": "INTELSAT 36 (IS-36)",
          "OBJECT_ID": "2016-053A",
          "EPOCH": "2025-11-30T19:18:24.112800",
          "MEAN_MOTION": 1.00276384,
          "ECCENTRICITY": 0.0001414,
          "INCLINATION": 0.011,
          "RA_OF_ASC_NODE": 341.081,
          "ARG_OF_PERICENTER": 333.1566,
          "MEAN_ANOMALY": 113.814,
          "EPHEMERIS_TYPE": 0,
          "CLASSIFICATION_TYPE": "U",
          "NORAD_CAT_ID": 41747,
          "ELEMENT_SET_NO": 999,
          "REV_AT_EPOCH": 3395,
          "BSTAR": 0,
          "MEAN_MOTION_DOT": -4e-08,
          "MEAN_MOTION_DDOT": 0
        }
      },
      "geometry": {
        "type": "Point",
        "coordinates": [
          NaN,
          NaN
        ]
      }
    },
    {
      "type": "Feature",
      "properties": {
        "norad_id": 41945,
        "name": "INTELSAT 32E (IS-32E)",
        "group": "intelsat",
        "lat": NaN,
        "lon": NaN,
        "alt_km": NaN,
        "timestamp": "2025-12-01T03:08:33.651393+00:00",
        "meta": {
          "OBJECT_NAME": "INTELSAT 32E (IS-32E)",
          "OBJECT_ID": "2017-007B",
          "EPOCH": "2025-11-30T18:46:27.174144",
          "MEAN_MOTION": 1.002716,
          "ECCENTRICITY": 2.85e-05,
          "INCLINATION": 0.0183,
          "RA_OF_ASC_NODE": 48.654,
          "ARG_OF_PERICENTER": 111.6952,
          "MEAN_ANOMALY": 148.0148,
          "EPHEMERIS_TYPE": 0,
          "CLASSIFICATION_TYPE": "U",
          "NORAD_CAT_ID": 41945,
          "ELEMENT_SET_NO": 999,
          "REV_AT_EPOCH": 3223,
          "BSTAR": 0,
          "MEAN_MOTION_DOT": -2.47e-06,
          "MEAN_MOTION_DDOT": 0
        }
      },
      "geometry": {
        "type": "Point",
        "coordinates": [
          NaN,
          NaN
        ]
      }
    },
    {
      "type": "Feature",
      "properties": {
        "norad_id": 42818,
        "name": "INTELSAT 35E (IS-35E)",
        "group": "intelsat",
        "lat": NaN,
        "lon": NaN,
        "alt_km": NaN,
        "timestamp": "2025-12-01T03:08:33.651831+00:00",
        "meta": {
          "OBJECT_NAME": "INTELSAT 35E (IS-35E)",
          "OBJECT_ID": "2017-041A",
          "EPOCH": "2025-11-30T18:48:56.933856",
          "MEAN_MOTION": 1.00271761,
          "ECCENTRICITY": 0.0002401,
          "INCLINATION": 0.0181,
          "RA_OF_ASC_NODE": 346.7462,
          "ARG_OF_PERICENTER": 265.4248,
          "MEAN_ANOMALY": 65.5054,
          "EPHEMERIS_TYPE": 0,
          "CLASSIFICATION_TYPE": "U",
          "NORAD_CAT_ID": 42818,
          "ELEMENT_SET_NO": 999,
          "REV_AT_EPOCH": 3082,
          "BSTAR": 0,
          "MEAN_MOTION_DOT": -2.16e-06,
          "MEAN_MOTION_DDOT": 0
        }
      },
      "geometry": {
        "type": "Point",
        "coordinates": [
          NaN,
          NaN
        ]
      }
    },
    {
      "type": "Feature",
      "properties": {
        "norad_id": 42950,
        "name": "INTELSAT 37E (IS-37E)",
        "group": "intelsat",
        "lat": NaN,
        "lon": NaN,
        "alt_km": NaN,
        "timestamp": "2025-12-01T03:08:33.652279+00:00",
        "meta": {
          "OBJECT_NAME": "INTELSAT 37E (IS-37E)",
          "OBJECT_ID": "2017-059A",
          "EPOCH": "2025-11-30T18:53:41.481024",
          "MEAN_MOTION": 1.00273184,
          "ECCENTRICITY": 0.0003163,
          "INCLINATION": 0.0165,
          "RA_OF_ASC_NODE": 284.099,
          "ARG_OF_PERICENTER": 318.1795,
          "MEAN_ANOMALY": 93.074,
          "EPHEMERIS_TYPE": 0,
          "CLASSIFICATION_TYPE": "U",
          "NORAD_CAT_ID": 42950,
          "ELEMENT_SET_NO": 999,
          "REV_AT_EPOCH": 3007,
          "BSTAR": 0,
          "MEAN_MOTION_DOT": -1.18e-06,
          "MEAN_MOTION_DDOT": 0
        }
      },
      "geometry": {
        "type": "Point",
        "coordinates": [
          NaN,
          NaN
        ]
      }
    },
    {
      "type": "Feature",
      "properties": {
        "norad_id": 43632,
        "name": "AZERSPACE 2 (IS-38)",
        "group": "intelsat",
        "lat": NaN,
        "lon": NaN,
        "alt_km": NaN,
        "timestamp": "2025-12-01T03:08:33.652731+00:00",
        "meta": {
          "OBJECT_NAME": "AZERSPACE 2 (IS-38)",
          "OBJECT_ID": "2018-074A",
          "EPOCH": "2025-11-30T18:56:51.501408",
          "MEAN_MOTION": 1.0027058,
          "ECCENTRICITY": 0.0001506,
          "INCLINATION": 0.0183,
          "RA_OF_ASC_NODE": 308.0301,
          "ARG_OF_PERICENTER": 295.3597,
          "MEAN_ANOMALY": 155.8588,
          "EPHEMERIS_TYPE": 0,
          "CLASSIFICATION_TYPE": "U",
          "NORAD_CAT_ID": 43632,
          "ELEMENT_SET_NO": 999,
          "REV_AT_EPOCH": 2645,
          "BSTAR": 0,
          "MEAN_MOTION_DOT": 1.58e-06,
          "MEAN_MOTION_DDOT": 0
        }
      },
      "geometry": {
        "type": "Point",
        "coordinates": [
          NaN,
          NaN
        ]
      }
    }
  ]
}